$$SOE
2460728.500000000, A.D. 2025-Feb-22 00:00:00.0000, -3.781583495641297E+08, -3.944006955797558E+08, 4.288554651276444E+07,
2460735.500000000, A.D. 2025-Mar-01 00:00:00.0000, -3.717402738149008E+08, -3.999987230128365E+08, 4.141910701252230E+07,
2460742.500000000, A.D. 2025-Mar-08 00:00:00.0000, -3.652123126660710E+08, -4.054785840229812E+08, 3.994042437927459E+07,
2460749.500000000, A.D. 2025-Mar-15 00:00:00.0000, -3.585761116903715E+08, -4.108383460443103E+08, 3.844990479208198E+07,
2460756.500000000, A.D. 2025-Mar-22 00:00:00.0000, -3.518333438480392E+08, -4.160760833908266E+08, 3.694795875176331E+07,
2460763.500000000, A.D. 2025-Mar-29 00:00:00.0000, -3.449857108753257E+08, -4.211898790982878E+08, 3.543500110864653E+07,
2460770.500000000, A.D. 2025-Apr-05 00:00:00.0000, -3.380349429971100E+08, -4.261778259055154E+08, 3.391145100991867E+07,
2460777.500000000, A.D. 2025-Apr-12 00:00:00.0000, -3.309827988900556E+08, -4.310380262711949E+08, 3.237773195140941E+07,
2460784.500000000, A.D. 2025-Apr-19 00:00:00.0000, -3.238310660834721E+08, -4.357685923071306E+08, 3.083427187853357E+07,
2460791.500000000, A.D. 2025-Apr-26 00:00:00.0000, -3.165815615257975E+08, -4.403676458305696E+08, 2.928150329443106E+07,
2460798.500000000, A.D. 2025-May-03 00:00:00.0000, -3.092361322023176E+08, -4.448333185162156E+08, 2.771986336602524E+07,
2460805.500000000, A.D. 2025-May-10 00:00:00.0000, -3.017966557747052E+08, -4.491637521395025E+08, 2.614979402574927E+07,
2460812.500000000, A.D. 2025-May-17 00:00:00.0000, -2.942650412049216E+08, -4.533570989529337E+08, 2.457174206197536E+07,
2460819.500000000, A.D. 2025-May-24 00:00:00.0000, -2.866432291891508E+08, -4.574115222512065E+08, 2.298615917760515E+07,
2460826.500000000, A.D. 2025-May-31 00:00:00.0000, -2.789331919839925E+08, -4.613251968155596E+08, 2.139350200384739E+07,
2460833.500000000, A.D. 2025-Jun-07 00:00:00.0000, -2.711369330260333E+08, -4.650963080337167E+08, 1.979423220438185E+07,
2460840.500000000, A.D. 2025-Jun-14 00:00:00.0000, -2.632564887091862E+08, -4.687230503630356E+08, 1.818881683221042E+07,
2460847.500000000, A.D. 2025-Jun-21 00:00:00.0000, -2.552939311026047E+08, -4.722036284094175E+08, 1.657772856014901E+07,
2460854.500000000, A.D. 2025-Jun-28 00:00:00.0000, -2.472513684810520E+08, -4.755362588591512E+08, 1.496144564222729E+07,
2460861.500000000, A.D. 2025-Jul-05 00:00:00.0000, -2.391309451847822E+08, -4.787191711086221E+08, 1.334045192134452E+07,
2460868.500000000, A.D. 2025-Jul-12 00:00:00.0000, -2.309348419998980E+08, -4.817506073980265E+08, 1.171523692654562E+07,
2460875.500000000, A.D. 2025-Jul-19 00:00:00.0000, -2.226652768692031E+08, -4.846288230248896E+08, 1.008629599541697E+07,
2460882.500000000, A.D. 2025-Jul-26 00:00:00.0000, -2.143245057229683E+08, -4.873520866948947E+08, 8.454130397589892E+06,
2460889.500000000, A.D. 2025-Aug-02 00:00:00.0000, -2.059148233635134E+08, -4.899186809896451E+08, 6.819247455012649E+06,
2460896.500000000, A.D. 2025-Aug-09 00:00:00.0000, -1.974385643795786E+08, -4.923269029674575E+08, 5.182160655584455E+06,
2460903.500000000, A.D. 2025-Aug-16 00:00:00.0000, -1.888981040130417E+08, -4.945750649619014E+08, 3.543389747911423E+06,
2460910.500000000, A.D. 2025-Aug-23 00:00:00.0000, -1.802958586848493E+08, -4.966614955630435E+08, 1.903460791702569E+06,
2460917.500000000, A.D. 2025-Aug-30 00:00:00.0000, -1.716342858506660E+08, -4.985845400687454E+08, 2.629061920073330E+05,
2460924.500000000, A.D. 2025-Sep-06 00:00:00.0000, -1.629158846036219E+08, -5.003425594068934E+08, -1.377735070878893E+06,
2460931.500000000, A.D. 2025-Sep-13 00:00:00.0000, -1.541431986936292E+08, -5.019339300124116E+08, -3.017917065555304E+06,
2460938.500000000, A.D. 2025-Sep-20 00:00:00.0000, -1.453188186885298E+08, -5.033570463053391E+08, -4.657086822397977E+06,
2460945.500000000, A.D. 2025-Sep-27 00:00:00.0000, -1.364453822175297E+08, -5.046103226609346E+08, -6.294684378062427E+06,
2460952.500000000, A.D. 2025-Oct-04 00:00:00.0000, -1.275255743128023E+08, -5.056921943346574E+08, -7.930142722676694E+06,
2460959.500000000, A.D. 2025-Oct-11 00:00:00.0000, -1.185621282218144E+08, -5.066011182866402E+08, -9.562887692733526E+06,
2460966.500000000, A.D. 2025-Oct-18 00:00:00.0000, -1.095578264053037E+08, -5.073355741815329E+08, -1.119233785845479E+07,
2460973.500000000, A.D. 2025-Oct-25 00:00:00.0000, -1.005155015796604E+08, -5.078940655542237E+08, -1.281790441797382E+07,
2460980.500000000, A.D. 2025-Nov-01 00:00:00.0000, -9.143803776231930E+07, -5.082751211276909E+08, -1.443899110123980E+07,
2460987.500000000, A.D. 2025-Nov-08 00:00:00.0000, -8.232837128360616E+07, -5.084772963165032E+08, -1.605499409001255E+07,
2460994.500000000, A.D. 2025-Nov-15 00:00:00.0000, -7.318949161523993E+07, -5.084991749768460E+08, -1.766530197298524E+07,
2461001.500000000, A.D. 2025-Nov-22 00:00:00.0000, -6.402444161091121E+07, -5.083393711853654E+08, -1.926929575571674E+07,
2461008.500000000, A.D. 2025-Nov-29 00:00:00.0000, -5.483631731025896E+07, -5.079965299140965E+08, -2.086634881933275E+07,
2461015.500000000, A.D. 2025-Dec-06 00:00:00.0000, -4.562826958161258E+07, -5.074693267392048E+08, -2.245582663100180E+07,
2461022.500000000, A.D. 2025-Dec-13 00:00:00.0000, -3.640350716720237E+07, -5.067564699552649E+08, -2.403708652219963E+07,
2461029.500000000, A.D. 2025-Dec-20 00:00:00.0000, -2.716529763478224E+07, -5.058567040740211E+08, -2.560947777234676E+07,
2461036.500000000, A.D. 2025-Dec-27 00:00:00.0000, -1.791696730688314E+07, -5.047688121183578E+08, -2.717234168827155E+07,
2461043.500000000, A.D. 2026-Jan-03 00:00:00.0000, -8.661901623987878E+06, -5.034916173279806E+08, -2.872501159658158E+07,
2461050.500000000, A.D. 2026-Jan-10 00:00:00.0000, 5.964541719734604E+05, -5.020239849561476E+08, -3.026681281510016E+07,
2461057.500000000, A.D. 2026-Jan-17 00:00:00.0000, 9.854594271008033E+06, -5.003648242497864E+08, -3.179706263286248E+07,
2461064.500000000, A.D. 2026-Jan-24 00:00:00.0000, 1.910895152830261E+07, -4.985130905918301E+08, -3.331507030476978E+07,
2461071.500000000, A.D. 2026-Jan-31 00:00:00.0000, 2.835589672581898E+07, -4.964677878153608E+08, -3.482013706457713E+07,
2461078.500000000, A.D. 2026-Feb-07 00:00:00.0000, 3.759173792857914E+07, -4.942279707494178E+08, -3.631155616752693E+07,
2461085.500000000, A.D. 2026-Feb-14 00:00:00.0000, 4.681272019329923E+07, -4.917927480141830E+08, -3.778861298808017E+07,
2461092.500000000, A.D. 2026-Feb-21 00:00:00.0000, 5.601502602152105E+07, -4.891612844904850E+08, -3.925058516211647E+07,
2461099.500000000, A.D. 2026-Feb-28 00:00:00.0000, 6.519477547718730E+07, -4.863328023114519E+08, -4.069674258080721E+07,
2461106.500000000, A.D. 2026-Mar-07 00:00:00.0000, 7.434802391548055E+07, -4.833065823265910E+08, -4.212634720767531E+07,
2461113.500000000, A.D. 2026-Mar-14 00:00:00.0000, 8.347076010520673E+07, -4.800819683711897E+08, -4.353865316511473E+07,
2461120.500000000, A.D. 2026-Mar-21 00:00:00.0000, 9.255890653487280E+07, -4.766583714443877E+08, -4.493290701825044E+07,
2461127.500000000, A.D. 2026-Mar-28 00:00:00.0000, 1.016083199002148E+08, -4.730352727688786E+08, -4.630834798898321E+07,
2461134.500000000, A.D. 2026-Apr-04 00:00:00.0000, 1.106147911767283E+08, -4.692122266988593E+08, -4.766420812495309E+07,
2461141.500000000, A.D. 2026-Apr-11 00:00:00.0000, 1.195740455587783E+08, -4.651888638366610E+08, -4.899971247915486E+07,
2461148.500000000, A.D. 2026-Apr-18 00:00:00.0000, 1.284817424326558E+08, -4.609648943647884E+08, -5.031407931658000E+07,
2461155.500000000, A.D. 2026-Apr-25 00:00:00.0000, 1.373334754380247E+08, -4.565401115780959E+08, -5.160652035212210E+07,
2461162.500000000, A.D. 2026-May-02 00:00:00.0000, 1.461247726578131E+08, -4.519143956446021E+08, -5.287624102628198E+07,
2461169.500000000, A.D. 2026-May-09 00:00:00.0000, 1.548510970713191E+08, -4.470877176599032E+08, -5.412244083693519E+07,
2461176.500000000, A.D. 2026-May-16 00:00:00.0000, 1.635078476590950E+08, -4.420601438557519E+08, -5.534431375209519E+07,
2461183.500000000, A.D. 2026-May-23 00:00:00.0000, 1.720903612219508E+08, -4.368318389392322E+08, -5.654104862655777E+07,
2461190.500000000, A.D. 2026-May-30 00:00:00.0000, 1.805939128457743E+08, -4.314030682407082E+08, -5.771182940737078E+07,
2461197.500000000, A.D. 2026-Jun-06 00:00:00.0000, 1.890137147051519E+08, -4.257742019398331E+08, -5.885583536820489E+07,
2461204.500000000, A.D. 2026-Jun-13 00:00:00.0000, 1.973449168832688E+08, -4.199457211656527E+08, -5.997224169441885E+07,
2461211.500000000, A.D. 2026-Jun-20 00:00:00.0000, 2.055826097192380E+08, -4.139182230402870E+08, -6.106022013581309E+07,
2461218.500000000, A.D. 2026-Jun-27 00:00:00.0000, 2.137218259964130E+08, -4.076924250011461E+08, -6.211893960120070E+07,
2461225.500000000, A.D. 2026-Jul-04 00:00:00.0000, 2.217575429833899E+08, -4.012691691703832E+08, -6.314756676018414E+07,
2461232.500000000, A.D. 2026-Jul-11 00:00:00.0000, 2.296846845935067E+08, -3.946494268961365E+08, -6.414526668820845E+07,
2461239.500000000, A.D. 2026-Jul-18 00:00:00.0000, 2.374981237674004E+08, -3.878343034312773E+08, -6.511120356316854E+07,
2461246.500000000, A.D. 2026-Jul-25 00:00:00.0000, 2.451926851148189E+08, -3.808250427368901E+08, -6.604454141725980E+07,
2461253.500000000, A.D. 2026-Aug-01 00:00:00.0000, 2.527631478757862E+08, -3.736230324468536E+08, -6.694444495388898E+07,
2461260.500000000, A.D. 2026-Aug-08 00:00:00.0000, 2.602042494288014E+08, -3.662298090164222E+08, -6.781008045371062E+07,
2461267.500000000, A.D. 2026-Aug-15 00:00:00.0000, 2.675106897745935E+08, -3.586470625912927E+08, -6.864061677260262E+07,
2461274.500000000, A.D. 2026-Aug-22 00:00:00.0000, 2.746771362472455E+08, -3.508766403628247E+08, -6.943522626358433E+07,
2461281.500000000, A.D. 2026-Aug-29 00:00:00.0000, 2.816982261743577E+08, -3.429205497674055E+08, -7.019308552614328E+07,
2461288.500000000, A.D. 2026-Sep-05 00:00:00.0000, 2.885685696290359E+08, -3.347809643797147E+08, -7.091337641363283E+07,
$$EOE